[{"OBJECT_NAME":"STARLINK-32731","OBJECT_ID":"2025-003G","EPOCH":"2026-03-09T00:17:25.687104","MEAN_MOTION":15.27610718,"ECCENTRICITY":0.00010373,"INCLINATION":43.0022,"RA_OF_ASC_NODE":293.1653,"ARG_OF_PERICENTER":254.5573,"MEAN_ANOMALY":105.5164,"EPHEMERIS_TYPE":0,"CLASSIFICATION_TYPE":"U","NORAD_CAT_ID":62493,"ELEMENT_SET_NO":999,"REV_AT_EPOCH":6656,"BSTAR":0.0015646158,"MEAN_MOTION_DOT":0.00043085,"MEAN_MOTION_DDOT":0},{"OBJECT_NAME":"FLOCK 4G-10","OBJECT_ID":"2025-009BP","EPOCH":"2026-03-09T16:59:55.292640","MEAN_MOTION":15.27155944,"ECCENTRICITY":0.00034694,"INCLINATION":97.3967,"RA_OF_ASC_NODE":150.5883,"ARG_OF_PERICENTER":341.4844,"MEAN_ANOMALY":18.6269,"EPHEMERIS_TYPE":0,"CLASSIFICATION_TYPE":"U","NORAD_CAT_ID":62670,"ELEMENT_SET_NO":999,"REV_AT_EPOCH":12134,"BSTAR":0.00052624432,"MEAN_MOTION_DOT":0.00013952,"MEAN_MOTION_DDOT":0}]
