STARLINK-32731          
1 62493U 25003G   26068.01210286  .00043085  00000+0  15646-2 0  9999
2 62493  43.0022 293.1653 0001037 254.5573 105.5164 15.27610718 66561
FLOCK 4G-10             
1 62670U 25009BP  26068.70827885  .00013952  00000+0  52624-3 0  9995
2 62670  97.3967 150.5883 0003469 341.4844  18.6269 15.27155944121340
